start=new Date('2021-09-14T00:00:00.000Z').valueOf();
sats=[{"SEMIMAJOR_AXIS":"6925.358","REF_FRAME":"TEME","EPHEMERIS_TYPE":"0","MEAN_ANOMALY":"244.5903","MEAN_MOTION_DOT":"0.00001208","PERIOD":"95.592","CLASSIFICATION_TYPE":"U","LAUNCH_DATE":"2021-04-07","BSTAR":"0.00009995000000","INCLINATION":"53.0567","TLE_LINE1":"1 48142U 21027BC  21256.46480128  .00001208  00000-0  99950-4 0  9997","SITE":"AFETR","NORAD_CAT_ID":"48142","CENTER_NAME":"EARTH","OBJECT_ID":"2021-027BC","FILE":"3114796","ARG_OF_PERICENTER":"115.5123","MEAN_MOTION_DDOT":"0.0000000000000","ELEMENT_SET_NO":"999","RA_OF_ASC_NODE":"305.8915","COUNTRY_CODE":"US","MEAN_ELEMENT_THEORY":"SGP4","RCS_SIZE":"LARGE","EPOCH":"2021-09-13T11:09:18.830592","DECAY_DATE":null,"OBJECT_NAME":"STARLINK-2485","TIME_SYSTEM":"UTC","REV_AT_EPOCH":"2578","PERIAPSIS":"546.978","OBJECT_TYPE":"PAYLOAD","GP_ID":"184636372","TLE_LINE2":"2 48142  53.0567 305.8915 0000353 115.5123 244.5903 15.06397003 25780","ECCENTRICITY":"0.00003530","MEAN_MOTION":"15.06397003","APOAPSIS":"547.467"},{"TLE_LINE2":"2 48143  53.0440 271.6645 0004018 354.6005   5.4969 15.73180099 26256","ECCENTRICITY":"0.00040180","APOAPSIS":"352.520","MEAN_MOTION":"15.73180099","RCS_SIZE":"LARGE","EPOCH":"2021-09-13T10:18:29.508480","DECAY_DATE":null,"MEAN_ELEMENT_THEORY":"SGP4","PERIAPSIS":"347.114","OBJECT_TYPE":"PAYLOAD","GP_ID":"184635120","OBJECT_NAME":"STARLINK-2486","TIME_SYSTEM":"UTC","REV_AT_EPOCH":"2625","OBJECT_ID":"2021-027BD","NORAD_CAT_ID":"48143","CENTER_NAME":"EARTH","MEAN_MOTION_DDOT":"0.0000000000000","ELEMENT_SET_NO":"999","RA_OF_ASC_NODE":"271.6645","COUNTRY_CODE":"US","ARG_OF_PERICENTER":"354.6005","FILE":"3114796","MEAN_MOTION_DOT":"-0.00009967","SEMIMAJOR_AXIS":"6727.952","REF_FRAME":"TEME","EPHEMERIS_TYPE":"0","MEAN_ANOMALY":"5.4969","INCLINATION":"53.0440","TLE_LINE1":"1 48143U 21027BD  21256.42950820 -.00009967  00000-0 -66654-4 0  9992","SITE":"AFETR","PERIOD":"91.534","CLASSIFICATION_TYPE":"U","LAUNCH_DATE":"2021-04-07","BSTAR":"-0.00006665400000"},{"MEAN_ANOMALY":"220.1658","EPHEMERIS_TYPE":"0","REF_FRAME":"TEME","SEMIMAJOR_AXIS":"6925.361","MEAN_MOTION_DOT":"-0.00000377","CLASSIFICATION_TYPE":"U","PERIOD":"95.592","BSTAR":"-0.00000642710000","LAUNCH_DATE":"2021-04-07","INCLINATION":"53.0564","SITE":"AFETR","TLE_LINE1":"1 48144U 21027BE  21256.60488334 -.00000377  00000-0 -64271-5 0  9999","NORAD_CAT_ID":"48144","CENTER_NAME":"EARTH","OBJECT_ID":"2021-027BE","FILE":"3115005","ARG_OF_PERICENTER":"139.9358","MEAN_MOTION_DDOT":"0.0000000000000","RA_OF_ASC_NODE":"305.2636","COUNTRY_CODE":"US","ELEMENT_SET_NO":"999","MEAN_ELEMENT_THEORY":"SGP4","DECAY_DATE":null,"RCS_SIZE":"LARGE","EPOCH":"2021-09-13T14:31:01.920576","TIME_SYSTEM":"UTC","OBJECT_NAME":"STARLINK-2487","REV_AT_EPOCH":"2579","OBJECT_TYPE":"PAYLOAD","PERIAPSIS":"546.975","GP_ID":"184664097","TLE_LINE2":"2 48144  53.0564 305.2636 0000363 139.9358 220.1658 15.06395792 25795","ECCENTRICITY":"0.00003630","MEAN_MOTION":"15.06395792","APOAPSIS":"547.478"},{"ECCENTRICITY":"0.00005960","TLE_LINE2":"2 48145  53.0552 305.2391 0000596 107.5397 252.5657 15.06391880 25807","APOAPSIS":"547.651","MEAN_MOTION":"15.06391880","DECAY_DATE":null,"RCS_SIZE":"LARGE","EPOCH":"2021-09-13T14:36:19.743840","MEAN_ELEMENT_THEORY":"SGP4","GP_ID":"184662862","OBJECT_TYPE":"PAYLOAD","PERIAPSIS":"546.826","REV_AT_EPOCH":"2580","TIME_SYSTEM":"UTC","OBJECT_NAME":"STARLINK-2488","OBJECT_ID":"2021-027BF","CENTER_NAME":"EARTH","NORAD_CAT_ID":"48145","RA_OF_ASC_NODE":"305.2391","COUNTRY_CODE":"US","ELEMENT_SET_NO":"999","MEAN_MOTION_DDOT":"0.0000000000000","FILE":"3115005","ARG_OF_PERICENTER":"107.5397","MEAN_MOTION_DOT":"-0.00000387","MEAN_ANOMALY":"252.5657","EPHEMERIS_TYPE":"0","REF_FRAME":"TEME","SEMIMAJOR_AXIS":"6925.373","SITE":"AFETR","TLE_LINE1":"1 48145U 21027BF  21256.60856185 -.00000387  00000-0 -71341-5 0  9990","INCLINATION":"53.0552","LAUNCH_DATE":"2021-04-07","BSTAR":"-0.00000713410000","CLASSIFICATION_TYPE":"U","PERIOD":"95.593"},{"NORAD_CAT_ID":"48146","CENTER_NAME":"EARTH","OBJECT_ID":"2021-027BG","FILE":"3115005","ARG_OF_PERICENTER":"129.8940","MEAN_MOTION_DDOT":"0.0000000000000","COUNTRY_CODE":"US","RA_OF_ASC_NODE":"325.2472","ELEMENT_SET_NO":"999","EPHEMERIS_TYPE":"0","MEAN_ANOMALY":"230.2117","REF_FRAME":"TEME","SEMIMAJOR_AXIS":"6925.347","MEAN_MOTION_DOT":"-0.00000014","PERIOD":"95.592","CLASSIFICATION_TYPE":"U","BSTAR":"0.00001794600000","LAUNCH_DATE":"2021-04-07","INCLINATION":"53.0563","SITE":"AFETR","TLE_LINE1":"1 48146U 21027BG  21256.60671135 -.00000014  00000-0  17946-4 0  9997","TLE_LINE2":"2 48146  53.0563 325.2472 0000768 129.8940 230.2117 15.06400584 25529","ECCENTRICITY":"0.00007680","MEAN_MOTION":"15.06400584","APOAPSIS":"547.744","MEAN_ELEMENT_THEORY":"SGP4","DECAY_DATE":null,"RCS_SIZE":"LARGE","EPOCH":"2021-09-13T14:33:39.860640","TIME_SYSTEM":"UTC","OBJECT_NAME":"STARLINK-2489","REV_AT_EPOCH":"2552","OBJECT_TYPE":"PAYLOAD","PERIAPSIS":"546.680","GP_ID":"184663112"},{"ECCENTRICITY":"0.00014160","TLE_LINE2":"2 48147  53.0546 330.7440 0001416 108.6807 251.4336 15.06405129 25433","MEAN_MOTION":"15.06405129","APOAPSIS":"548.178","MEAN_ELEMENT_THEORY":"SGP4","DECAY_DATE":null,"RCS_SIZE":"LARGE","EPOCH":"2021-09-13T11:19:15.927168","REV_AT_EPOCH":"2543","TIME_SYSTEM":"UTC","OBJECT_NAME":"STARLINK-2490","GP_ID":"184663864","OBJECT_TYPE":"PAYLOAD","PERIAPSIS":"546.217","CENTER_NAME":"EARTH","NORAD_CAT_ID":"48147","OBJECT_ID":"2021-027BH","FILE":"3115005","ARG_OF_PERICENTER":"108.6807","RA_OF_ASC_NODE":"330.7440","COUNTRY_CODE":"US","ELEMENT_SET_NO":"999","MEAN_MOTION_DDOT":"0.0000000000000","EPHEMERIS_TYPE":"0","MEAN_ANOMALY":"251.4336","REF_FRAME":"TEME","SEMIMAJOR_AXIS":"6925.333","MEAN_MOTION_DOT":"-0.00000241","BSTAR":"0.00000270810000","LAUNCH_DATE":"2021-04-07","PERIOD":"95.592","CLASSIFICATION_TYPE":"U","SITE":"AFETR","TLE_LINE1":"1 48147U 21027BH  21256.47171212 -.00000241  00000-0  27081-5 0  9998","INCLINATION":"53.0546"},{"REV_AT_EPOCH":"2552","TIME_SYSTEM":"UTC","OBJECT_NAME":"STARLINK-2491","GP_ID":"184664598","OBJECT_TYPE":"PAYLOAD","PERIAPSIS":"546.561","MEAN_ELEMENT_THEORY":"SGP4","DECAY_DATE":null,"RCS_SIZE":"LARGE","EPOCH":"2021-09-13T16:56:59.890272","MEAN_MOTION":"15.06391742","APOAPSIS":"547.917","ECCENTRICITY":"0.00009790","TLE_LINE2":"2 48148  53.0578 324.8083 0000979 114.3392 245.7699 15.06391742 25525","LAUNCH_DATE":"2021-04-07","BSTAR":"0.00007355300000","PERIOD":"95.593","CLASSIFICATION_TYPE":"U","SITE":"AFETR","TLE_LINE1":"1 48148U 21027BJ  21256.70624873  .00000814  00000-0  73553-4 0  9990","INCLINATION":"53.0578","EPHEMERIS_TYPE":"0","MEAN_ANOMALY":"245.7699","SEMIMAJOR_AXIS":"6925.374","REF_FRAME":"TEME","MEAN_MOTION_DOT":"0.00000814","FILE":"3115005","ARG_OF_PERICENTER":"114.3392","COUNTRY_CODE":"US","RA_OF_ASC_NODE":"324.8083","ELEMENT_SET_NO":"999","MEAN_MOTION_DDOT":"0.0000000000000","CENTER_NAME":"EARTH","NORAD_CAT_ID":"48148","OBJECT_ID":"2021-027BJ"},{"DECAY_DATE":null,"EPOCH":"2021-09-13T10:53:24.045792","RCS_SIZE":"LARGE","MEAN_ELEMENT_THEORY":"SGP4","GP_ID":"184636122","OBJECT_TYPE":"PAYLOAD","PERIAPSIS":"546.807","REV_AT_EPOCH":"2577","TIME_SYSTEM":"UTC","OBJECT_NAME":"STARLINK-2492","ECCENTRICITY":"0.00006280","TLE_LINE2":"2 48149  53.0420 305.9942 0000628 138.7648 221.3388 15.06390755 25776","APOAPSIS":"547.677","MEAN_MOTION":"15.06390755","MEAN_MOTION_DOT":"-0.00000685","EPHEMERIS_TYPE":"0","MEAN_ANOMALY":"221.3388","REF_FRAME":"TEME","SEMIMAJOR_AXIS":"6925.377","SITE":"AFETR","TLE_LINE1":"1 48149U 21027BK  21256.45375053 -.00000685  00000-0 -27121-4 0  9994","INCLINATION":"53.0420","LAUNCH_DATE":"2021-04-07","BSTAR":"-0.00002712100000","PERIOD":"95.593","CLASSIFICATION_TYPE":"U","OBJECT_ID":"2021-027BK","CENTER_NAME":"EARTH","NORAD_CAT_ID":"48149","RA_OF_ASC_NODE":"305.9942","COUNTRY_CODE":"US","ELEMENT_SET_NO":"999","MEAN_MOTION_DDOT":"0.0000000000000","FILE":"3114796","ARG_OF_PERICENTER":"138.7648"},{"MEAN_ELEMENT_THEORY":"SGP4","EPOCH":"2021-09-13T15:45:20.362752","RCS_SIZE":"LARGE","DECAY_DATE":null,"OBJECT_NAME":"STARLINK-2493","TIME_SYSTEM":"UTC","REV_AT_EPOCH":"2581","PERIAPSIS":"546.690","OBJECT_TYPE":"PAYLOAD","GP_ID":"184663613","TLE_LINE2":"2 48150  53.0692 304.9749 0000773  99.3089 260.7987 15.06396258 25816","ECCENTRICITY":"0.00007730","MEAN_MOTION":"15.06396258","APOAPSIS":"547.760","SEMIMAJOR_AXIS":"6925.360","REF_FRAME":"TEME","MEAN_ANOMALY":"260.7987","EPHEMERIS_TYPE":"0","MEAN_MOTION_DOT":"0.00000550","CLASSIFICATION_TYPE":"U","PERIOD":"95.592","LAUNCH_DATE":"2021-04-07","BSTAR":"0.00005582900000","INCLINATION":"53.0692","TLE_LINE1":"1 48150U 21027BL  21256.65648568  .00000550  00000-0  55829-4 0  9997","SITE":"AFETR","NORAD_CAT_ID":"48150","CENTER_NAME":"EARTH","OBJECT_ID":"2021-027BL","FILE":"3115005","ARG_OF_PERICENTER":"99.3089","MEAN_MOTION_DDOT":"0.0000000000000","ELEMENT_SET_NO":"999","COUNTRY_CODE":"US","RA_OF_ASC_NODE":"304.9749"},{"GP_ID":"184639825","PERIAPSIS":"546.679","OBJECT_TYPE":"PAYLOAD","REV_AT_EPOCH":"2539","OBJECT_NAME":"STARLINK-2503","TIME_SYSTEM":"UTC","EPOCH":"2021-09-13T12:39:33.672384","RCS_SIZE":"LARGE","DECAY_DATE":null,"MEAN_ELEMENT_THEORY":"SGP4","APOAPSIS":"547.776","MEAN_MOTION":"15.06395471","ECCENTRICITY":"0.00007920","TLE_LINE2":"2 48151  53.0662 305.5681 0000792 106.3350 253.7726 15.06395471 25399","TLE_LINE1":"1 48151U 21027BM  21256.52747306 -.00000257  00000-0  16049-5 0  9991","SITE":"AFETR","INCLINATION":"53.0662","LAUNCH_DATE":"2021-04-07","BSTAR":"0.00000160490000","PERIOD":"95.592","CLASSIFICATION_TYPE":"U","MEAN_MOTION_DOT":"-0.00000257","REF_FRAME":"TEME","SEMIMAJOR_AXIS":"6925.362","MEAN_ANOMALY":"253.7726","EPHEMERIS_TYPE":"0","ELEMENT_SET_NO":"999","RA_OF_ASC_NODE":"305.5681","COUNTRY_CODE":"US","MEAN_MOTION_DDOT":"0.0000000000000","ARG_OF_PERICENTER":"106.3350","FILE":"3114914","OBJECT_ID":"2021-027BM","CENTER_NAME":"EARTH","NORAD_CAT_ID":"48151"}];
